{
  "type": "FeatureCollection",
  "features": [
    {
      "type": "Feature",
      "properties": {
        "norad_id": 34141,
        "name": "COSMOS 2251 DEB",
        "group": "cosmos-2251-debris",
        "lat": 73.95924461576836,
        "lon": 113.50911372558856,
        "alt_km": 690.2662535300897,
        "timestamp": "2025-12-13T07:35:41.898657+00:00",
        "meta_object_name": "COSMOS 2251 DEB",
        "meta_object_id": "1993-036LN",
        "meta_epoch": "2025-12-12T13:30:37.399968",
        "meta_mean_motion": 14.49240222,
        "meta_eccentricity": 0.00472076,
        "meta_inclination": 74.0114,
        "meta_ra_of_asc_node": 29.193,
        "meta_arg_of_pericenter": 115.5509,
        "meta_mean_anomaly": 3.7463,
        "meta_ephemeris_type": 0,
        "meta_classification_type": "U",
        "meta_norad_cat_id": 34141,
        "meta_element_set_no": 999,
        "meta_rev_at_epoch": 87691,
        "meta_bstar": 0.0021785635,
        "meta_mean_motion_dot": 8.405e-05,
        "meta_mean_motion_ddot": 0,
        "tle_line1": "1 34141U 93036LN  25346.56293287  .00008405  00000+0  21786-2 0  9998",
        "tle_line2": "2 34141  74.0114  29.1930 0047207 115.5509   3.7463 14.49240222876916"
      },
      "geometry": {
        "type": "Point",
        "coordinates": [
          113.50911372558856,
          73.95924461576836
        ]
      }
    },
    {
      "type": "Feature",
      "properties": {
        "norad_id": 34270,
        "name": "COSMOS 2251 DEB",
        "group": "cosmos-2251-debris",
        "lat": 70.29137141040462,
        "lon": -1.3162883619766161,
        "alt_km": 637.6087059341571,
        "timestamp": "2025-12-13T07:35:41.898666+00:00",
        "meta_object_name": "COSMOS 2251 DEB",
        "meta_object_id": "1993-036LQ",
        "meta_epoch": "2025-12-12T23:02:48.910848",
        "meta_mean_motion": 14.65173049,
        "meta_eccentricity": 0.00477855,
        "meta_inclination": 74.0115,
        "meta_ra_of_asc_node": 306.202,
        "meta_arg_of_pericenter": 98.9489,
        "meta_mean_anomaly": 261.7093,
        "meta_ephemeris_type": 0,
        "meta_classification_type": "U",
        "meta_norad_cat_id": 34270,
        "meta_element_set_no": 999,
        "meta_rev_at_epoch": 89099,
        "meta_bstar": 0.0011626522,
        "meta_mean_motion_dot": 6.335e-05,
        "meta_mean_motion_ddot": 0,
        "tle_line1": "1 34270U 93036LQ  25346.96028832  .00006335  00000+0  11627-2 0  9990",
        "tle_line2": "2 34270  74.0115 306.2020 0047785  98.9489 261.7093 14.65173049890990"
      },
      "geometry": {
        "type": "Point",
        "coordinates": [
          -1.3162883619766161,
          70.29137141040462
        ]
      }
    },
    {
      "type": "Feature",
      "properties": {
        "norad_id": 34271,
        "name": "COSMOS 2251 DEB",
        "group": "cosmos-2251-debris",
        "lat": 34.534386853917695,
        "lon": -150.41945583936177,
        "alt_km": 666.7300921377109,
        "timestamp": "2025-12-13T07:35:41.898675+00:00",
        "meta_object_name": "COSMOS 2251 DEB",
        "meta_object_id": "1993-036LR",
        "meta_epoch": "2025-12-12T15:21:53.424288",
        "meta_mean_motion": 14.70758736,
        "meta_eccentricity": 0.00188793,
        "meta_inclination": 74.0204,
        "meta_ra_of_asc_node": 199.521,
        "meta_arg_of_pericenter": 253.6543,
        "meta_mean_anomaly": 163.3111,
        "meta_ephemeris_type": 0,
        "meta_classification_type": "U",
        "meta_norad_cat_id": 34271,
        "meta_element_set_no": 999,
        "meta_rev_at_epoch": 88233,
        "meta_bstar": 0.0026730495,
        "meta_mean_motion_dot": 0.00016364,
        "meta_mean_motion_ddot": 0,
        "tle_line1": "1 34271U 93036LR  25346.64020167  .00016364  00000+0  26730-2 0  9993",
        "tle_line2": "2 34271  74.0204 199.5210 0018879 253.6543 163.3111 14.70758736882332"
      },
      "geometry": {
        "type": "Point",
        "coordinates": [
          -150.41945583936177,
          34.534386853917695
        ]
      }
    },
    {
      "type": "Feature",
      "properties": {
        "norad_id": 34273,
        "name": "COSMOS 2251 DEB",
        "group": "cosmos-2251-debris",
        "lat": 34.18235603113344,
        "lon": 97.5358436985197,
        "alt_km": 696.5846286305568,
        "timestamp": "2025-12-13T07:35:41.898684+00:00",
        "meta_object_name": "COSMOS 2251 DEB",
        "meta_object_id": "1993-036LT",
        "meta_epoch": "2025-12-12T06:55:22.657152",
        "meta_mean_motion": 14.6122201,
        "meta_eccentricity": 0.00141089,
        "meta_inclination": 74.0355,
        "meta_ra_of_asc_node": 88.2899,
        "meta_arg_of_pericenter": 214.244,
        "meta_mean_anomaly": 176.1186,
        "meta_ephemeris_type": 0,
        "meta_classification_type": "U",
        "meta_norad_cat_id": 34273,
        "meta_element_set_no": 999,
        "meta_rev_at_epoch": 88615,
        "meta_bstar": 0.0016140644,
        "meta_mean_motion_dot": 7.947e-05,
        "meta_mean_motion_ddot": 0,
        "tle_line1": "1 34273U 93036LT  25346.28845668  .00007947  00000+0  16141-2 0  9998",
        "tle_line2": "2 34273  74.0355  88.2899 0014108 214.2440 176.1186 14.61222010886157"
      },
      "geometry": {
        "type": "Point",
        "coordinates": [
          97.5358436985197,
          34.18235603113344
        ]
      }
    },
    {
      "type": "Feature",
      "properties": {
        "norad_id": 34274,
        "name": "COSMOS 2251 DEB",
        "group": "cosmos-2251-debris",
        "lat": 51.72500055110942,
        "lon": -133.86172116000822,
        "alt_km": 673.1344763914267,
        "timestamp": "2025-12-13T07:35:41.898693+00:00",
        "meta_object_name": "COSMOS 2251 DEB",
        "meta_object_id": "1993-036LU",
        "meta_epoch": "2025-12-12T16:51:18.764064",
        "meta_mean_motion": 14.64786524,
        "meta_eccentricity": 0.00220301,
        "meta_inclination": 74.0042,
        "meta_ra_of_asc_node": 68.6393,
        "meta_arg_of_pericenter": 218.6944,
        "meta_mean_anomaly": 269.4715,
        "meta_ephemeris_type": 0,
        "meta_classification_type": "U",
        "meta_norad_cat_id": 34274,
        "meta_element_set_no": 999,
        "meta_rev_at_epoch": 88675,
        "meta_bstar": 0.0016535794,
        "meta_mean_motion_dot": 8.831e-05,
        "meta_mean_motion_ddot": 0,
        "tle_line1": "1 34274U 93036LU  25346.70230051  .00008831  00000+0  16536-2 0  9991",
        "tle_line2": "2 34274  74.0042  68.6393 0022030 218.6944 269.4715 14.64786524886750"
      },
      "geometry": {
        "type": "Point",
        "coordinates": [
          -133.86172116000822,
          51.72500055110942
        ]
      }
    },
    {
      "type": "Feature",
      "properties": {
        "norad_id": 34276,
        "name": "COSMOS 2251 DEB",
        "group": "cosmos-2251-debris",
        "lat": 44.948479984702296,
        "lon": 100.84151082442925,
        "alt_km": 713.8691116663695,
        "timestamp": "2025-12-13T07:35:41.898702+00:00",
        "meta_object_name": "COSMOS 2251 DEB",
        "meta_object_id": "1993-036LW",
        "meta_epoch": "2025-12-12T23:40:28.255296",
        "meta_mean_motion": 14.57233326,
        "meta_eccentricity": 0.00225798,
        "meta_inclination": 74.0234,
        "meta_ra_of_asc_node": 84.8514,
        "meta_arg_of_pericenter": 231.5947,
        "meta_mean_anomaly": 245.1747,
        "meta_ephemeris_type": 0,
        "meta_classification_type": "U",
        "meta_norad_cat_id": 34276,
        "meta_element_set_no": 999,
        "meta_rev_at_epoch": 88596,
        "meta_bstar": 0.0012409877,
        "meta_mean_motion_dot": 5.602e-05,
        "meta_mean_motion_ddot": 0,
        "tle_line1": "1 34276U 93036LW  25346.98643814  .00005602  00000+0  12410-2 0  9998",
        "tle_line2": "2 34276  74.0234  84.8514 0022579 231.5947 245.1747 14.57233326885962"
      },
      "geometry": {
        "type": "Point",
        "coordinates": [
          100.84151082442925,
          44.948479984702296
        ]
      }
    },
    {
      "type": "Feature",
      "properties": {
        "norad_id": 34297,
        "name": "COSMOS 2251 DEB",
        "group": "cosmos-2251-debris",
        "lat": 16.118803517919797,
        "lon": -72.08535949665571,
        "alt_km": 758.7712788130029,
        "timestamp": "2025-12-13T07:35:41.898711+00:00",
        "meta_object_name": "COSMOS 2251 DEB",
        "meta_object_id": "1993-036MT",
        "meta_epoch": "2025-12-12T21:46:53.876928",
        "meta_mean_motion": 14.36629618,
        "meta_eccentricity": 0.00172904,
        "meta_inclination": 74.0487,
        "meta_ra_of_asc_node": 283.924,
        "meta_arg_of_pericenter": 352.4709,
        "meta_mean_anomaly": 70.467,
        "meta_ephemeris_type": 0,
        "meta_classification_type": "U",
        "meta_norad_cat_id": 34297,
        "meta_element_set_no": 999,
        "meta_rev_at_epoch": 88067,
        "meta_bstar": 0.00023055501,
        "meta_mean_motion_dot": 6.53e-06,
        "meta_mean_motion_ddot": 0,
        "tle_line1": "1 34297U 93036MT  25346.90756802  .00000653  00000+0  23056-3 0  9995",
        "tle_line2": "2 34297  74.0487 283.9240 0017290 352.4709  70.4670 14.36629618880673"
      },
      "geometry": {
        "type": "Point",
        "coordinates": [
          -72.08535949665571,
          16.118803517919797
        ]
      }
    }
  ]
}